{"type": "FeatureCollection", "features": [ {"type": "Feature", "properties": {"norad_id": 30759, "name": "FENGYUN 1C DEB", "group": "fengyun-1c-debris", "lat": 15.674070878242942, "lon": -68.99710806787638, "alt_km": 705.6905184059506, "timestamp": "2025-12-25T07:00:34.325506+00:00", "meta": {"OBJECT_NAME": "FENGYUN 1C DEB", "OBJECT_ID": "1999-025ATV", "EPOCH": "2025-12-24T20:55:51.339936", "MEAN_MOTION": 14.54741978, "ECCENTRICITY": 0.00085298, "INCLINATION": 99.2566, "RA_OF_ASC_NODE": 107.9156, "ARG_OF_PERICENTER": 134.1743, "MEAN_ANOMALY": 351.7631, "EPHEMERIS_TYPE": 0, "CLASSIFICATION_TYPE": "U", "NORAD_CAT_ID": 30759, "ELEMENT_SET_NO": 999, "REV_AT_EPOCH": 97831, "BSTAR": 0.0024394137, "MEAN_MOTION_DOT": 0.00010413, "MEAN_MOTION_DDOT": 0}, "tle": {"line1": "1 30759U 99025ATV 25358.87212199  .00010413  00000+0  24394-2 0  9993", "line2": "2 30759  99.2566 107.9156 0008529 134.1743 351.7631 14.54741978978313"}}, "geometry": {"type": "Point", "coordinates": [-68.99710806787638, 15.674070878242942]}}, {"type": "Feature", "properties": {"norad_id": 30760, "name": "FENGYUN 1C DEB", "group": "fengyun-1c-debris", "lat": 49.22271998285194, "lon": -173.99580261641518, "alt_km": 909.2986873839536, "timestamp": "2025-12-25T07:00:34.325516+00:00", "meta": {"OBJECT_NAME": "FENGYUN 1C DEB", "OBJECT_ID": "1999-025ATW", "EPOCH": "2025-12-24T21:50:47.926752", "MEAN_MOTION": 14.05191256, "ECCENTRICITY": 0.0052317, "INCLINATION": 98.8229, "RA_OF_ASC_NODE": 355.2585, "ARG_OF_PERICENTER": 309.1277, "MEAN_ANOMALY": 50.5247, "EPHEMERIS_TYPE": 0, "CLASSIFICATION_TYPE": "U", "NORAD_CAT_ID": 30760, "ELEMENT_SET_NO": 999, "REV_AT_EPOCH": 96393, "BSTAR": 0.0002678583, "MEAN_MOTION_DOT": 3.95e-06, "MEAN_MOTION_DDOT": 0}, "tle": {"line1": "1 30760U 99025ATW 25358.91027693  .00000395  00000+0  26786-3 0  9999", "line2": "2 30760  98.8229 355.2585 0052317 309.1277  50.5247 14.05191256963933"}}, "geometry": {"type": "Point", "coordinates": [-173.99580261641518, 49.22271998285194]}}, {"type": "Feature", "properties": {"norad_id": 30761, "name": "FENGYUN 1C DEB", "group": "fengyun-1c-debris", "lat": -0.7057807934921009, "lon": 105.76761469261112, "alt_km": 781.3270786465391, "timestamp": "2025-12-25T07:00:34.325526+00:00", "meta": {"OBJECT_NAME": "FENGYUN 1C DEB", "OBJECT_ID": "1999-025ATX", "EPOCH": "2025-12-24T18:27:18.614880", "MEAN_MOTION": 14.35841776, "ECCENTRICITY": 0.00837282, "INCLINATION": 98.9663, "RA_OF_ASC_NODE": 285.3353, "ARG_OF_PERICENTER": 278.4033, "MEAN_ANOMALY": 80.7667, "EPHEMERIS_TYPE": 0, "CLASSIFICATION_TYPE": "U", "NORAD_CAT_ID": 30761, "ELEMENT_SET_NO": 999, "REV_AT_EPOCH": 97914, "BSTAR": 0.00098140946, "MEAN_MOTION_DOT": 2.91e-05, "MEAN_MOTION_DDOT": 0}, "tle": {"line1": "1 30761U 99025ATX 25358.76896545  .00002910  00000+0  98141-3 0  9992", "line2": "2 30761  98.9663 285.3353 0083728 278.4033  80.7667 14.35841776979144"}}, "geometry": {"type": "Point", "coordinates": [105.76761469261112, -0.7057807934921009]}}, {"type": "Feature", "properties": {"norad_id": 30762, "name": "FENGYUN 1C DEB", "group": "fengyun-1c-debris", "lat": 80.75740775233265, "lon": -116.52027795588663, "alt_km": 1033.1243779745619, "timestamp": "2025-12-25T07:00:34.325537+00:00", "meta": {"OBJECT_NAME": "FENGYUN 1C DEB", "OBJECT_ID": "1999-025ATY", "EPOCH": "2025-12-24T17:41:52.326816", "MEAN_MOTION": 13.98113979, "ECCENTRICITY": 0.01973022, "INCLINATION": 98.8763, "RA_OF_ASC_NODE": 349.1388, "ARG_OF_PERICENTER": 261.87, "MEAN_ANOMALY": 281.0282, "EPHEMERIS_TYPE": 0, "CLASSIFICATION_TYPE": "U", "NORAD_CAT_ID": 30762, "ELEMENT_SET_NO": 999, "REV_AT_EPOCH": 95805, "BSTAR": 0.00050242304, "MEAN_MOTION_DOT": 7.99e-06, "MEAN_MOTION_DDOT": 0}, "tle": {"line1": "1 30762U 99025ATY 25358.73741119  .00000799  00000+0  50242-3 0  9999", "line2": "2 30762  98.8763 349.1388 0197302 261.8700 281.0282 13.98113979958054"}}, "geometry": {"type": "Point", "coordinates": [-116.52027795588663, 80.75740775233265]}}, {"type": "Feature", "properties": {"norad_id": 30763, "name": "FENGYUN 1C DEB", "group": "fengyun-1c-debris", "lat": -55.30457615448234, "lon": 84.65729073171036, "alt_km": 689.6005572802223, "timestamp": "2025-12-25T07:00:34.325547+00:00", "meta": {"OBJECT_NAME": "FENGYUN 1C DEB", "OBJECT_ID": "1999-025ATZ", "EPOCH": "2025-12-24T03:36:14.587776", "MEAN_MOTION": 14.61522485, "ECCENTRICITY": 0.00244741, "INCLINATION": 98.8917, "RA_OF_ASC_NODE": 70.3614, "ARG_OF_PERICENTER": 235.7234, "MEAN_ANOMALY": 183.0981, "EPHEMERIS_TYPE": 0, "CLASSIFICATION_TYPE": "U", "NORAD_CAT_ID": 30763, "ELEMENT_SET_NO": 999, "REV_AT_EPOCH": 97311, "BSTAR": 0.0042257046, "MEAN_MOTION_DOT": 0.00021062, "MEAN_MOTION_DDOT": 0}, "tle": {"line1": "1 30763U 99025ATZ 25358.15016884  .00021062  00000+0  42257-2 0  9992", "line2": "2 30763  98.8917  70.3614 0024474 235.7234 183.0981 14.61522485973110"}}, "geometry": {"type": "Point", "coordinates": [84.65729073171036, -55.30457615448234]}}, {"type": "Feature", "properties": {"norad_id": 30764, "name": "FENGYUN 1C DEB", "group": "fengyun-1c-debris", "lat": 6.468075549874955, "lon": -28.797562527688353, "alt_km": 505.0404431801235, "timestamp": "2025-12-25T07:00:34.325558+00:00", "meta": {"OBJECT_NAME": "FENGYUN 1C DEB", "OBJECT_ID": "1999-025AUA", "EPOCH": "2025-12-24T21:33:43.177824", "MEAN_MOTION": 15.29807588, "ECCENTRICITY": 0.00764757, "INCLINATION": 98.7802, "RA_OF_ASC_NODE": 331.7419, "ARG_OF_PERICENTER": 128.8322, "MEAN_ANOMALY": 231.9774, "EPHEMERIS_TYPE": 0, "CLASSIFICATION_TYPE": "U", "NORAD_CAT_ID": 30764, "ELEMENT_SET_NO": 999, "REV_AT_EPOCH": 1408, "BSTAR": 0.001112725, "MEAN_MOTION_DOT": 0.0003515, "MEAN_MOTION_DDOT": 0}, "tle": {"line1": "1 30764U 99025AUA 25358.89841641  .00035150  00000+0  11127-2 0  9996", "line2": "2 30764  98.7802 331.7419 0076475 128.8322 231.9774 15.29807588 14088"}}, "geometry": {"type": "Point", "coordinates": [-28.797562527688353, 6.468075549874955]}}, {"type": "Feature", "properties": {"norad_id": 30765, "name": "FENGYUN 1C DEB", "group": "fengyun-1c-debris", "lat": -42.55998825087858, "lon": 53.25932918025822, "alt_km": 889.3798612310766, "timestamp": "2025-12-25T07:00:34.325569+00:00", "meta": {"OBJECT_NAME": "FENGYUN 1C DEB", "OBJECT_ID": "1999-025AUB", "EPOCH": "2025-12-24T16:33:11.625696", "MEAN_MOTION": 14.14747299, "ECCENTRICITY": 0.00687322, "INCLINATION": 98.7869, "RA_OF_ASC_NODE": 44.5012, "ARG_OF_PERICENTER": 175.3929, "MEAN_ANOMALY": 314.9475, "EPHEMERIS_TYPE": 0, "CLASSIFICATION_TYPE": "U", "NORAD_CAT_ID": 30765, "ELEMENT_SET_NO": 999, "REV_AT_EPOCH": 96991, "BSTAR": 0.00077391931, "MEAN_MOTION_DOT": 1.482e-05, "MEAN_MOTION_DDOT": 0}, "tle": {"line1": "1 30765U 99025AUB 25358.68971789  .00001482  00000+0  77392-3 0  9999", "line2": "2 30765  98.7869  44.5012 0068732 175.3929 314.9475 14.14747299969913"}}, "geometry": {"type": "Point", "coordinates": [53.25932918025822, -42.55998825087858]}}, {"type": "Feature", "properties": {"norad_id": 30766, "name": "FENGYUN 1C DEB", "group": "fengyun-1c-debris", "lat": -40.968860680933965, "lon": 6.838480226252165, "alt_km": 857.0475860339875, "timestamp": "2025-12-25T07:00:34.325579+00:00", "meta": {"OBJECT_NAME": "FENGYUN 1C DEB", "OBJECT_ID": "1999-025AUC", "EPOCH": "2025-12-23T22:58:26.298048", "MEAN_MOTION": 14.09556111, "ECCENTRICITY": 0.0083444, "INCLINATION": 98.6731, "RA_OF_ASC_NODE": 357.9362, "ARG_OF_PERICENTER": 42.9494, "MEAN_ANOMALY": 346.9265, "EPHEMERIS_TYPE": 0, "CLASSIFICATION_TYPE": "U", "NORAD_CAT_ID": 30766, "ELEMENT_SET_NO": 999, "REV_AT_EPOCH": 62955, "BSTAR": 0.00066973, "MEAN_MOTION_DOT": 1.168e-05, "MEAN_MOTION_DDOT": 0}, "tle": {"line1": "1 30766U 99025AUC 25357.95724882  .00001168  00000+0  66973-3 0  9993", "line2": "2 30766  98.6731 357.9362 0083444  42.9494 346.9265 14.09556111629553"}}, "geometry": {"type": "Point", "coordinates": [6.838480226252165, -40.968860680933965]}}, {"type": "Feature", "properties": {"norad_id": 30768, "name": "FENGYUN 1C DEB", "group": "fengyun-1c-debris", "lat": 27.080090528294324, "lon": -86.27816864515432, "alt_km": 730.7561729218105, "timestamp": "2025-12-25T07:00:34.325590+00:00", "meta": {"OBJECT_NAME": "FENGYUN 1C DEB", "OBJECT_ID": "1999-025AUE", "EPOCH": "2025-12-23T04:41:50.951040", "MEAN_MOTION": 14.48040701, "ECCENTRICITY": 0.00242926, "INCLINATION": 98.6173, "RA_OF_ASC_NODE": 87.1386, "ARG_OF_PERICENTER": 69.0185, "MEAN_ANOMALY": 321.3168, "EPHEMERIS_TYPE": 0, "CLASSIFICATION_TYPE": "U", "NORAD_CAT_ID": 30768, "ELEMENT_SET_NO": 999, "REV_AT_EPOCH": 98022, "BSTAR": 0.0020918624, "MEAN_MOTION_DOT": 7.765e-05, "MEAN_MOTION_DDOT": 0}, "tle": {"line1": "1 30768U 99025AUE 25357.19572860  .00007765  00000+0  20919-2 0  9996", "line2": "2 30768  98.6173  87.1386 0024292  69.0185 321.3168 14.48040701980225"}}, "geometry": {"type": "Point", "coordinates": [-86.27816864515432, 27.080090528294324]}}, {"type": "Feature", "properties": {"norad_id": 30770, "name": "FENGYUN 1C DEB", "group": "fengyun-1c-debris", "lat": 17.41116852670289, "lon": 2.2408574711031606, "alt_km": 846.2885428154941, "timestamp": "2025-12-25T07:00:34.325601+00:00", "meta": {"OBJECT_NAME": "FENGYUN 1C DEB", "OBJECT_ID": "1999-025AUG", "EPOCH": "2025-12-24T12:51:01.671264", "MEAN_MOTION": 14.15696993, "ECCENTRICITY": 0.00128035, "INCLINATION": 98.6544, "RA_OF_ASC_NODE": 4.2438, "ARG_OF_PERICENTER": 249.7665, "MEAN_ANOMALY": 233.8534, "EPHEMERIS_TYPE": 0, "CLASSIFICATION_TYPE": "U", "NORAD_CAT_ID": 30770, "ELEMENT_SET_NO": 999, "REV_AT_EPOCH": 97074, "BSTAR": 0.00026404411, "MEAN_MOTION_DOT": 4.75e-06, "MEAN_MOTION_DDOT": 0}, "tle": {"line1": "1 30770U 99025AUG 25358.53543601  .00000475  00000+0  26404-3 0  9996", "line2": "2 30770  98.6544   4.2438 0012803 249.7665 233.8534 14.15696993970747"}}, "geometry": {"type": "Point", "coordinates": [2.2408574711031606, 17.41116852670289]}}]}